LEMUR-2-DEMBITZ         
1 42842U 17042T   26068.47492167  .00020231  00000+0  76561-3 0  9991
2 42842  97.3807 250.9241 0006961  17.1421 343.0051 15.26947128473114
STARLINK-31462          
1 59466U 24068M   26068.29762246  .00000165  00000+0  15535-4 0  9994
2 59466  43.0044  36.6411 0001021 282.5463  77.5275 15.27573671108468
